NORAD_CAT_ID,OBJECT_NAME,OBJECT_TYPE,EPOCH,MEAN_MOTION,ECCENTRICITY,INCLINATION,RA_OF_ASC_NODE,ARG_OF_PERICENTER,MEAN_ANOMALY,BSTAR,MEAN_MOTION_DOT,MEAN_MOTION_DDOT,TLE_LINE0,TLE_LINE1,TLE_LINE2,SEMIMAJOR_AXIS,PERIOD,APOGEE,PERIGEE,DECAYED
53422.0,STARLINK-4546,PAYLOAD,2023-10-15 16:57:44,15.08835666,0.0001318,53.2171,86.5602,91.3724,268.7419,3.1266e-05,2.1e-06,0.0,0 STARLINK-4546,1 53422U 22097AL  23288.70675972  .00000210  00000-0  31266-4 0  9997,2 53422  53.2171  86.5602 0001318  91.3724 268.7419 15.08835666 65920,6917.894,95.438,540.67,538.847,0.0
53422.0,STARLINK-4546,PAYLOAD,2023-10-16 13:37:44,15.08839625,0.0001414,53.2173,82.6941,90.9635,269.1519,5.8311e-05,6.4e-06,0.0,0 STARLINK-4546,1 53422U 22097AL  23289.56787719  .00000640  00000-0  58311-4 0  9992,2 53422  53.2173  82.6941 0001414  90.9635 269.1519 15.08839625 66531,6917.882,95.438,540.725,538.768,0.0
53422.0,STARLINK-4546,PAYLOAD,2023-10-16 16:48:30,15.08843538,0.0001342,53.2175,82.0992,93.3117,266.8029,4.8148e-05,4.79e-06,0.0,0 STARLINK-4546,1 53422U 22097AL  23289.70035479  .00000479  00000-0  48148-4 0  9994,2 53422  53.2175  82.0992 0001342  93.3117 266.8029 15.08843538 66072,6917.87,95.437,540.663,538.806,0.0
53422.0,STARLINK-4546,PAYLOAD,2023-10-17 10:17:45,15.08836235,0.0001323,53.2173,78.8289,92.5798,267.5345,0.00011296,1.51e-05,0.0,0 STARLINK-4546,1 53422U 22097AL  23290.42899845  .00001510  00000-0  11296-3 0  9990,2 53422  53.2173  78.8289 0001323  92.5798 267.5345 15.08836235 66184,6917.892,95.438,540.672,538.842,0.0
53422.0,STARLINK-4546,PAYLOAD,2023-10-18 19:40:51,15.08841023,0.0001476,53.2186,72.5854,81.6473,278.4686,5.6749e-05,6.15e-06,0.0,0 STARLINK-4546,1 53422U 22097AL  23291.82004005  .00000615  00000-0  56749-4 0  9999,2 53422  53.2186  72.5854 0001476  81.6473 278.4686 15.08841023 66398,6917.877,95.437,540.763,538.721,0.0
53422.0,STARLINK-4546,PAYLOAD,2023-10-19 09:59:19,15.08840062,0.0001318,53.218,69.9077,90.3887,269.7257,3.0056e-05,1.9e-06,0.0,0 STARLINK-4546,1 53422U 22097AL  23292.41619899  .00000190  00000-0  30056-4 0  9999,2 53422  53.2180  69.9077 0001318  90.3887 269.7257 15.08840062 66962,6917.88,95.438,540.657,538.833,0.0
53422.0,STARLINK-4546,PAYLOAD,2023-10-19 16:20:51,15.08849403,0.0001597,53.2183,68.7195,80.0719,280.0454,0.00011221,1.499e-05,0.0,0 STARLINK-4546,1 53422U 22097AL  23292.68115175  .00001499  00000-0  11221-3 0  9991,2 53422  53.2183  68.7195 0001597  80.0719 280.0454 15.08849403 66527,6917.852,95.437,540.821,538.612,0.0
53422.0,STARLINK-4546,PAYLOAD,2023-10-20 08:14:44,15.08833227,0.0001817,53.2182,65.7453,81.8366,278.2832,2.1247e-06,-2.54e-06,0.0,0 STARLINK-4546,1 53422U 22097AL  23293.34356761 -.00000254  00000-0  21247-5 0  9993,2 53422  53.2182  65.7453 0001817  81.8366 278.2832 15.08833227 66629,6917.901,95.438,541.023,538.509,0.0
53422.0,STARLINK-4546,PAYLOAD,2023-10-21 11:16:17,15.08833883,0.0001492,53.2165,60.6913,90.7921,269.3242,6.0976e-05,6.82e-06,0.0,0 STARLINK-4546,1 53422U 22097AL  23294.46964703  .00000682  00000-0  60976-4 0  9993,2 53422  53.2165  60.6913 0001492  90.7921 269.3242 15.08833883 66792,6917.899,95.438,540.796,538.732,0.0
53422.0,STARLINK-4546,PAYLOAD,2023-10-21 17:37:49,15.08855318,0.0002097,53.214,59.5006,70.237,289.8848,0.00010801,1.432e-05,0.0,0 STARLINK-4546,1 53422U 22097AL  23294.73459667  .00001432  00000-0  10801-3 0  9996,2 53422  53.2140  59.5006 0002097  70.2370 289.8848 15.08855318 66839,6917.834,95.437,541.149,538.248,0.0
53422.0,STARLINK-4546,PAYLOAD,2023-10-22 12:42:27,15.08839969,0.0002063,53.2166,55.9322,85.8394,274.2834,8.9363e-05,1.134e-05,0.0,0 STARLINK-4546,1 53422U 22097AL  23295.52948008  .00001134  00000-0  89363-4 0  9995,2 53422  53.2166  55.9322 0002063  85.8394 274.2834 15.08839969 66959,6917.88,95.438,541.173,538.318,0.0
53422.0,STARLINK-4546,PAYLOAD,2023-10-22 14:17:51,15.08823816,0.0001481,53.2184,55.6338,100.9844,259.1315,-7.631e-05,-1.502e-05,0.0,0 STARLINK-4546,1 53422U 22097AL  23295.59573329 -.00001502  00000-0 -76310-4 0  9991,2 53422  53.2184  55.6338 0001481 100.9844 259.1315 15.08823816 67440,6917.93,95.439,540.819,538.77,0.0
53422.0,STARLINK-4546,PAYLOAD,2023-10-22 15:53:14,15.0882405,0.0001439,53.2185,55.3367,98.7804,261.3351,-7.4457e-05,-1.472e-05,0.0,0 STARLINK-4546,1 53422U 22097AL  23295.66197367 -.00001472  00000-0 -74457-4 0  9999,2 53422  53.2185  55.3367 0001439  98.7804 261.3351 15.08824050 66976,6917.929,95.439,540.79,538.799,0.0
53422.0,STARLINK-4546,PAYLOAD,2023-10-23 01:25:33,15.08837712,0.0001421,53.2188,53.5521,98.914,261.2013,-0.00016295,-2.88e-05,0.0,0 STARLINK-4546,1 53422U 22097AL  23296.05941382 -.00002880  00000-0 -16295-3 0  9996,2 53422  53.2188  53.5521 0001421  98.9140 261.2013 15.08837712 67038,6917.887,95.438,540.735,538.769,0.0
53422.0,STARLINK-4546,PAYLOAD,2023-10-23 12:33:14,15.08842591,7.41e-05,53.22,51.4726,108.5466,251.5607,-0.00011618,-2.136e-05,0.0,0 STARLINK-4546,1 53422U 22097AL  23296.52308629 -.00002136  00000-0 -11618-3 0  9997,2 53422  53.2200  51.4726 0000741 108.5466 251.5607 15.08842591 67100,6917.872,95.437,540.25,539.225,0.0
53422.0,STARLINK-4546,PAYLOAD,2023-10-24 13:59:24,15.08839775,0.0001415,53.2201,46.7144,98.1034,262.0119,1.9795e-05,2.7e-07,0.0,0 STARLINK-4546,1 53422U 22097AL  23297.58292481  .00000027  00000-0  19795-4 0  9992,2 53422  53.2201  46.7144 0001415  98.1034 262.0119 15.08839775 67741,6917.881,95.438,540.725,538.767,0.0
53422.0,STARLINK-4546,PAYLOAD,2023-10-25 13:50:12,15.08839173,0.000158,53.2199,42.2546,102.4921,257.6248,6.765e-05,7.89e-06,0.0,0 STARLINK-4546,1 53422U 22097AL  23298.57652827  .00000789  00000-0  67650-4 0  9994,2 53422  53.2199  42.2546 0001580 102.4921 257.6248 15.08839173 67410,6917.883,95.438,540.841,538.655,0.0
53422.0,STARLINK-4546,PAYLOAD,2023-10-26 13:40:58,15.08848767,0.0001436,53.2195,37.793,100.5066,259.6089,0.00011399,1.527e-05,0.0,0 STARLINK-4546,1 53422U 22097AL  23299.57012156  .00001527  00000-0  11399-3 0  9999,2 53422  53.2195  37.7930 0001436 100.5066 259.6089 15.08848767 68045,6917.854,95.437,540.712,538.725,0.0
53422.0,STARLINK-4546,PAYLOAD,2023-10-26 23:13:17,15.08843835,0.00014,53.2196,36.0086,93.0893,267.0259,8.5637e-05,1.075e-05,0.0,0 STARLINK-4546,1 53422U 22097AL  23299.96756414  .00001075  00000-0  85637-4 0  9999,2 53422  53.2196  36.0086 0001400  93.0893 267.0259 15.08843835 67621,6917.869,95.437,540.702,538.765,0.0
53422.0,STARLINK-4546,PAYLOAD,2023-10-27 13:31:44,15.08869733,0.0001891,53.22,33.3379,108.5364,251.5834,-0.00013793,-2.485e-05,0.0,0 STARLINK-4546,1 53422U 22097AL  23300.56371319 -.00002485  00000-0 -13793-3 0  9996,2 53422  53.2200  33.3379 0001891 108.5364 251.5834 15.08869733 67713,6917.79,95.436,540.963,538.346,0.0
53422.0,STARLINK-4546,PAYLOAD,2023-10-27 15:07:08,15.08854761,0.0001488,53.2198,33.0371,98.7182,261.3979,0.00013907,1.927e-05,0.0,0 STARLINK-4546,1 53422U 22097AL  23300.62995391  .00001927  00000-0  13907-3 0  9990,2 53422  53.2198  33.0371 0001488  98.7182 261.3979 15.08854761 67723,6917.835,95.437,540.73,538.671,0.0
53422.0,STARLINK-4546,PAYLOAD,2023-10-27 23:04:04,15.08841356,0.000156,53.2197,31.5505,85.3798,274.7372,4.5807e-05,4.41e-06,0.0,0 STARLINK-4546,1 53422U 22097AL  23300.96116505  .00000441  00000-0  45807-4 0  9994,2 53422  53.2197  31.5505 0001560  85.3798 274.7372 15.08841356 67776,6917.876,95.437,540.82,538.662,0.0
53422.0,STARLINK-4546,PAYLOAD,2023-10-28 13:22:34,15.08829549,0.0001581,53.2192,28.8723,76.5544,283.5624,-0.00014347,-2.57e-05,0.0,0 STARLINK-4546,1 53422U 22097AL  23301.55734246 -.00002570  00000-0 -14347-3 0  9999,2 53422  53.2192  28.8723 0001581  76.5544 283.5624 15.08829549 67864,6917.912,95.438,540.871,538.684,0.0
53422.0,STARLINK-4546,PAYLOAD,2023-10-28 14:57:56,15.08836731,0.0001346,53.2184,28.5754,103.7441,256.3701,-6.6063e-05,-1.339e-05,0.0,0 STARLINK-4546,1 53422U 22097AL  23301.62357389 -.00001339  00000-0 -66063-4 0  9991,2 53422  53.2184  28.5754 0001346 103.7441 256.3701 15.08836731 67870,6917.89,95.438,540.687,538.824,0.0
53422.0,STARLINK-4546,PAYLOAD,2023-10-28 22:54:51,15.08850924,0.0001185,53.2175,27.0891,85.0262,275.0865,5.0428e-06,-2.08e-06,0.0,0 STARLINK-4546,1 53422U 22097AL  23301.95476254 -.00000208  00000-0  50428-5 0  9992,2 53422  53.2175  27.0891 0001185  85.0262 275.0865 15.08850924 67925,6917.847,95.437,540.532,538.892,0.0
53422.0,STARLINK-4546,PAYLOAD,2023-10-29 11:37:54,15.08867477,0.0001312,53.2171,24.7083,89.9593,270.1549,0.00017242,2.459e-05,0.0,0 STARLINK-4546,1 53422U 22097AL  23302.48466428  .00002459  00000-0  17242-3 0  9997,2 53422  53.2171  24.7083 0001312  89.9593 270.1549 15.08867477 68006,6917.796,95.436,540.569,538.754,0.0
53422.0,STARLINK-4546,PAYLOAD,2023-10-29 13:13:17,15.08871945,0.0001324,53.2178,24.413,86.2494,273.8649,0.00020404,2.964e-05,0.0,0 STARLINK-4546,1 53422U 22097AL  23302.55090074  .00002964  00000-0  20404-3 0  9990,2 53422  53.2178  24.4130 0001324  86.2494 273.8649 15.08871945 68495,6917.783,95.436,540.564,538.732,0.0
53422.0,STARLINK-4546,PAYLOAD,2023-10-30 05:07:12,15.08812498,0.0001728,53.2192,21.4411,83.4982,276.6207,3.9015e-05,3.33e-06,0.0,0 STARLINK-4546,1 53422U 22097AL  23303.21334357  .00000333  00000-0  39015-4 0  9996,2 53422  53.2192  21.4411 0001728  83.4982 276.6207 15.08812498 68117,6917.964,95.439,541.025,538.634,0.0
53422.0,STARLINK-4546,PAYLOAD,2023-10-30 11:28:45,15.08818404,0.0001289,53.2175,20.2513,86.4917,273.6223,-4.4689e-06,-3.59e-06,0.0,0 STARLINK-4546,1 53422U 22097AL  23303.47830386 -.00000359  00000-0 -44689-5 0  9991,2 53422  53.2175  20.2513 0001289  86.4917 273.6223 15.08818404 68636,6917.946,95.439,540.703,538.92,0.0
53422.0,STARLINK-4546,PAYLOAD,2023-10-31 09:44:08,15.08834329,0.000144,53.2175,16.0873,82.9842,277.1314,-0.00011295,-2.085e-05,0.0,0 STARLINK-4546,1 53422U 22097AL  23304.40565763 -.00002085  00000-0 -11295-3 0  9992,2 53422  53.2175  16.0873 0001440  82.9842 277.1314 15.08834329 68291,6917.898,95.438,540.759,538.767,0.0
